#dP2021  7 11  0  0  0.00000000     289 ORBIT IGS14 BHN ESOC                    
## 2166      0.00000000   300.00000000 59406 0.0000000000000                    
+  116   G13G28G21G22G07G05G20G31G17G15G16G29G12G19G02G25G01                    
+        G30G24G27G06G09G03G32G26G08G10G04G18G23G14G11R09R11                    
+        R20R19R13R01R22R16R08R03R07R02R17R18R21R05R15R12R04                    
+        R24E11E12E19E18E14E26E24E30E08E09E01E02E07E03E04E05                    
+        E21E25E27E31E36E13E15E33C11C12C14C19C20C27C28C22C21                    
+        C29C30C23C24C26C25C32C33C35C34C36C37C46C45C44C43C41                    
+        C42C06C07C08C09C10C13C16C38C39C40J01J02J03  0  0  0                    
++         5  5  5  5  5  5  5  5  5  5  5  5  5  5  5  5  5                    
++         5  4  5  5  5  6  5  5  5  6  5  5  5  5  5  7  6                    
++         6  6  6  7  7  6  5  5  5  5  5  5  5  6  5  5  6                    
++         6  5  5  5  5  5  5  5  4  5  5  5  5  5  6  5  5                    
++         5  5  5  5  5  5  5  5  5  5  5  5  5  5  5  5  5                    
++         5  5  5  5  5  5  6  5  5  5  5  5  5  6  8  5  6                    
++         6  6  6  6  6  6  7  6  8  7  8  7  7  5  0  0  0                    
%c M  cc GPS ccc cccc cccc cccc cccc ccccc ccccc ccccc ccccc                    
%c cc cc ccc ccc cccc cccc cccc cccc ccccc ccccc ccccc ccccc                    
%f  0.0000000  0.000000000  0.00000000000  0.000000000000000                    
%f  0.0000000  0.000000000  0.00000000000  0.000000000000000                    
%i    0    0    0    0      0      0      0      0         0                    
%i    0    0    0    0      0      0      0      0         0                    
/* CCCCCCCCCCCCCCCCCCCCCCCCCCCCCCCCCCCCCCCCCCCCCCCCCCCCCCCCCCCCCCCCCCCCCCCCCCCCC
/* CCCCCCCCCCCCCCCCCCCCCCCCCCCCCCCCCCCCCCCCCCCCCCCCCCCCCCCCCCCCCCCCCCCCCCCCCCCCC
/* CCCCCCCCCCCCCCCCCCCCCCCCCCCCCCCCCCCCCCCCCCCCCCCCCCCCCCCCCCCCCCCCCCCCCCCCCCCCC
/* PCV:IGS14      OL/AL:EOT11A   NONE     YN ORB:CoN CLK:CoN                    
*  2021  7 11 14 20  0.00000000                                                 
PG13 -22546.972844 -13523.421451  -4412.011059    156.314852                    
PG28   2827.560310 -18771.874688  19201.854240    539.696534                    
PG21  16910.106986   5397.824334  20605.294488    130.604837                    
PG22  19704.178091  -2818.969641  17673.179153   -566.279993                    
PG07   8451.836937 -17902.666396 -17100.190329    199.869202                    
PG05 -18095.548223  -1342.597911 -19619.660158    -47.591343                    
PG20 -11197.662344 -11072.746903 -21395.057096    520.298833                    
PG31   7601.437438  24975.591558  -3311.445731   -128.036559                    
PG17    653.980335 -15442.814099  22026.707164    472.146528                    
PG15 -26456.402544  -3288.508675   1825.822753   -136.275551                    
PG16  13680.966023   7979.476511 -21635.031044   -355.391833                    
PG29 -17073.076950   7100.117948 -19138.085526   -378.461209                    
PG12 -22288.897489   7821.381063  11757.522966    -67.149748                    
PG19  -9242.694672 -16974.134908  17997.844356     24.916718                    
PG02 -13662.633455 -20048.592471 -10081.486993   -618.828095                    
PG25 -20020.487998  17093.458420   1891.230754    171.614976                    
PG01  14296.915189  -2815.628841  21938.326478    631.491044                    
PG30    165.139820 -25392.307114  -7290.111925   -449.527992                    
PG24 -16526.779887  -2114.665527  20505.255628    170.029652                    
PG27  22226.427077  12508.652349  -8241.370527   -161.213647                    
PG06  -6759.789821 -25620.559001  -1172.103862     38.607965                    
PG09  15369.703111  -9920.239524 -19325.936180   -355.041779                    
PG03  21800.947374  -9777.265944  11383.880221   -217.446464                    
PG32   3355.098391  16290.670938  20858.509882     14.620842                    
PG26   4886.814535  16281.138989 -20402.982344    109.280869                    
PG08  25998.803458   5844.406112   2057.369603    -28.405946                    
PG10  -7396.628587  20808.454630  14670.218907   -159.910998                    
PG04  23656.993346   -924.631551 -12093.952234   -202.126567                    
PG18  -6678.875847  20364.816229 -15651.242349    341.683317                    
PG23 -16301.858849  20452.845872   4421.689105     86.043209                    
PG14   8095.981049 -20595.504486  14652.231262     49.871255                    
PG11 -11620.337471 -21100.573554 -11206.830511     12.972087                    
PR09  10322.435911 -22674.728200  -5269.381663      2.370635                    
PR11  -7834.920274  -9731.704055  22250.202900    -20.676940                    
PR20   4070.357305 -11018.656290  22636.679909    -52.305686                    
PR19  16028.845631   6780.077461  18637.596400   -151.113086                    
PR13 -10533.291805  22430.095536   6053.373123    -57.557348                    
PR01 -25073.392162   4170.334613  -2247.875363     82.160584                    
PR22 -17823.200477 -17118.757122  -6149.354054   -122.123111                    
PR16  13177.505531 -10868.390494 -19011.758859    -17.743429                    
PR08 -19379.072886  -4103.531821 -16002.665830    -59.896706                    
PR03   2870.554487  10608.512791  23064.553794     39.302654                    
PR07  -3495.528728 -10442.005608 -22968.200589    -42.070917                    
PR02 -15501.486015  10982.043669  17034.049883    485.641293                    
PR17  10243.476860  20209.543157 -11675.806719    440.161922                    
PR18  17794.618483  17594.134023   5082.649115     83.064238                    
PR21 -11061.407825 -20441.392390  10538.011979   -223.087973                    
PR05  25123.803883  -4467.488767    280.343383     75.153795                    
PR15   8042.996322   9345.090271 -22306.400060    102.748239                    
PR12 -13194.041202   9387.226658  19734.883476    244.436273                    
PR04  19299.142120   4129.613709  16192.069171     95.324341                    
PR24  -3656.924257  11938.564121 -22231.144652     50.026976                    
PE11  15489.585743  -4937.817834  24721.052184   5734.384848                    
PE12  18750.083010  16395.283404  15998.269995   5116.379186                    
PE19   9135.914854  16881.189623  22541.627933    324.209942                    
PE18 -20715.866209 -15401.652187   8318.493804  -1640.103215                    
PE14   7118.350658  20962.617715 -20864.089078  -1496.591673                    
PE26  -2824.038981  23180.525759 -18190.705020   1591.582486                    
PE24  22139.667057 -13915.125977 -13892.677866  -1002.178821                    
PE30 -16224.178876  -5586.649838  24114.105482   2792.632813                    
PE08 -27479.069186  -8156.867980  -7414.972098   5972.025166                    
PE09  26956.342503  -4942.692839 -11154.012916   5604.021126                    
PE01   1129.138694  21464.036485 -20347.275790  -1147.860980                    
PE02  -1249.495303 -21392.237865  20426.695783    232.178969                    
PE07 -27088.611701   4771.469893  10965.834466   -560.400467                    
PE03 -11669.204046 -16631.672668 -21529.722627   -451.512113                    
PE04  27266.933983   8549.753261   7720.158396   -811.085907                    
PE05  11068.551740 -15083.114046 -22930.924088   -266.034785                    
PE21 -14187.051752  25398.036997  -5471.370939   -675.638061                    
PE25  14315.008518 -25363.732986   5288.455442   -539.666558                    
PE27 -21996.491921  14783.117627  13188.067624    -73.352915                    
PE31  16814.161618   4431.830351 -23942.717591   -483.138036                    
PE36   3261.507496 -22585.853513  18845.587143   -232.976694                    
PE13 -15598.957524   4490.645092 -24754.733214    418.883260                    
PE15 -18764.405124 -16305.921250 -16067.506062    804.059278                    
PE33  10872.421919  27457.382120  -2062.774130   -467.840568                    
PC11 -13888.867252   7879.473668 -22836.608372    451.380352                    
PC12 -23290.972871  -8037.656790 -13099.001760    815.031030                    
PC14 -23187.717778  14095.543698   6673.975854    816.577538                    
PC19  15831.568181 -17368.471207 -15005.066775    905.044329                    
PC20  26190.836030  -9521.140583   1057.327926   -848.284070                    
PC27  23071.886224  15026.560875   4566.151722    562.580296                    
PC28  12281.920664  21587.447263 -12717.355299    -51.932235                    
PC22  -4086.735300 -15398.877273 -22907.000990   -948.436997                    
PC21 -21425.333148  -4459.466966 -17313.951050   -935.482382                    
PC29   5108.521910 -15701.628794  22485.388645    418.004984                    
PC30  20601.660569   -624.739745  18812.051997    473.651022                    
PC23   2771.663888  26052.724514  -9601.855172   -967.130026                    
PC24 -16472.068743   8704.528300  20770.915640   -934.095515                    
PC26 -14050.392621 -10857.854557  21530.751535    880.226349                    
PC25  -8745.599970  25446.353042   7363.966024   -887.560782                    
PC32  21410.119275   4368.818953  17363.655338   -924.462653                    
PC33 -15816.380589  17482.099994  14956.206225   -942.175261                    
PC35 -12676.650903 -21174.931027  12986.600423   -192.238058                    
PC34 -20174.223257   1337.354049 -19239.038303   -630.556628                    
PC36   9521.452170 -25073.682207  -7668.977637   -732.194581                    
PC37  13430.181317  12113.239856 -21224.466791   -865.982922                    
PC46  16223.866834  -9978.431577 -20392.422594    183.827605                    
PC45  -2887.008673 -25982.383751   9796.230542    490.594144                    
PC44 -23540.071546 -14298.814297  -4403.414054    284.007582                    
PC43  -5779.909323  15452.592976 -22520.040262   -816.573321                    
PC41   3763.444163  15584.523699  22889.846857   -958.337634                    
PC42 -26331.719296   9101.746221  -1746.835490   -918.701254                    
PC06  -8938.823323  23842.201327  34147.479398    611.172659                    
PC07 -22979.691307  30708.012353 -17856.340909    132.957117                    
PC08 -10261.574325  38128.589441 -14117.708493   -903.183798                    
PC09   5921.183031  30520.495217  28992.760462    381.982122                    
PC10 -10766.152762  31323.827962 -26107.663055    -20.002523                    
PC13  -2761.825856  41872.585038  -2291.408764    332.643424                    
PC16  -6367.650262  24390.466212  33962.862316   -924.787696                    
PC38  -9882.134316  38920.116491 -12597.033767    160.969724                    
PC39  -3904.095968  25008.913350  33759.522204     32.279064                    
PC40 -18502.457620  26978.180738 -26662.984311    179.457217                    
PJ01 -31213.698539  24753.440089  18942.635515   -413.405489                    
PJ02 -33125.546848  25187.961328  11958.103385     -0.720345                    
PJ03 -22108.810718  19701.595336 -25405.486560     -0.152169                    
EOF                                                                             
